[{"OBJECT_NAME":"NETSAT-1","OBJECT_ID":"2020-068W","EPOCH":"2026-03-09T22:42:38.711232","MEAN_MOTION":15.32042482,"ECCENTRICITY":0.00057337,"INCLINATION":97.8751,"RA_OF_ASC_NODE":63.2583,"ARG_OF_PERICENTER":18.5877,"MEAN_ANOMALY":341.5572,"EPHEMERIS_TYPE":0,"CLASSIFICATION_TYPE":"U","NORAD_CAT_ID":46506,"ELEMENT_SET_NO":999,"REV_AT_EPOCH":30009,"BSTAR":0.00059222329,"MEAN_MOTION_DOT":0.00018269,"MEAN_MOTION_DDOT":0},{"OBJECT_NAME":"STARLINK-34255","OBJECT_ID":"2025-192P","EPOCH":"2026-03-09T18:28:24.909600","MEAN_MOTION":15.30196109,"ECCENTRICITY":8.376e-5,"INCLINATION":53.1598,"RA_OF_ASC_NODE":232.1756,"ARG_OF_PERICENTER":84.1723,"MEAN_ANOMALY":275.9373,"EPHEMERIS_TYPE":0,"CLASSIFICATION_TYPE":"U","NORAD_CAT_ID":65417,"ELEMENT_SET_NO":999,"REV_AT_EPOCH":2939,"BSTAR":0.00041067785,"MEAN_MOTION_DOT":0.00011822,"MEAN_MOTION_DDOT":0}]
